[{"OBJECT_NAME":"STARLINK-5313","OBJECT_ID":"2023-010AW","EPOCH":"2026-03-09T23:18:47.650176","MEAN_MOTION":14.98330211,"ECCENTRICITY":0.00027416,"INCLINATION":70.0013,"RA_OF_ASC_NODE":3.7787,"ARG_OF_PERICENTER":268.6791,"MEAN_ANOMALY":91.4054,"EPHEMERIS_TYPE":0,"CLASSIFICATION_TYPE":"U","NORAD_CAT_ID":55313,"ELEMENT_SET_NO":999,"REV_AT_EPOCH":17468,"BSTAR":-1.3585395e-5,"MEAN_MOTION_DOT":-2.55e-6,"MEAN_MOTION_DDOT":0},{"OBJECT_NAME":"UM5-EOSAT","OBJECT_ID":"2024-149CR","EPOCH":"2026-03-09T17:21:09.122400","MEAN_MOTION":15.00894746,"ECCENTRICITY":0.00087192,"INCLINATION":97.6855,"RA_OF_ASC_NODE":148.6787,"ARG_OF_PERICENTER":107.8964,"MEAN_ANOMALY":252.3212,"EPHEMERIS_TYPE":0,"CLASSIFICATION_TYPE":"U","NORAD_CAT_ID":60555,"ELEMENT_SET_NO":999,"REV_AT_EPOCH":8529,"BSTAR":0.00036077282,"MEAN_MOTION_DOT":4.537e-5,"MEAN_MOTION_DDOT":0}]
